{"type": "FeatureCollection", "features": [{"type": "Feature", "geometry": {"type": "Polygon", "coordinates": [[[-121.475830078125, 47.170139738510954], [-121.475830078125, 47.184404330916834], [-121.46681785583496, 47.184404330916834], [-121.46677494049072, 47.17725792824933], [-121.46677494049072, 47.170110563639014], [-121.46759033203125, 47.170139738510954], [-121.475830078125, 47.170139738510954]]]}, "properties": {"fid": 306776, "ogc_fid": 306776, "path": "/us/wa/king/enumclaw-plateau/306776", "ll_uuid": "f2f46a97-4d5c-4c27-b9ec-22b9cc887066", "owner": "DEPT OF NATURAL RESOURCES", "parcelnumb": "3620109001"}, "id": 121}, {"type": "Feature", "geometry": {"type": "Polygon", "coordinates": [[[-121.4665174484253, 47.2153123770934], [-121.4665174484253, 47.214816824078554], [-121.47140979766846, 47.213417590568554], [-121.4734697341919, 47.213417590568554], [-121.4665174484253, 47.2153123770934]]]}, "properties": {"fid": 95129, "ogc_fid": 95129, "path": "/us/wa/king/enumclaw-plateau/95129", "ll_uuid": "96e05ccd-8c0b-4d9e-b716-75d86cf9d93d", "owner": "DEPT OF NATURAL RESOURCES", "parcelnumb": "1320109017"}, "id": 138}, {"type": "Feature", "geometry": {"type": "Polygon", "coordinates": [[[-121.46681785583496, 47.184404330916834], [-121.46677494049072, 47.17725792824933], [-121.46677494049072, 47.170110563639014], [-121.46759033203125, 47.170139738510954], [-121.47810459136963, 47.170139738510954], [-121.48797512054443, 47.170110563639014], [-121.48801803588867, 47.177228757287736], [-121.48810386657715, 47.18431682976265], [-121.47746086120605, 47.18437516388147], [-121.46681785583496, 47.184404330916834]]]}, "properties": {"fid": 306776, "ogc_fid": 306776, "path": "/us/wa/king/enumclaw-plateau/306776", "ll_uuid": "f2f46a97-4d5c-4c27-b9ec-22b9cc887066", "owner": "DEPT OF NATURAL RESOURCES", "parcelnumb": "3620109001"}, "id": 118}, {"type": "Feature", "geometry": {"type": "Polygon", "coordinates": [[[-121.4665174484253, 47.2153123770934], [-121.4665174484253, 47.214816824078554], [-121.47140979766846, 47.213417590568554], [-121.4734697341919, 47.213417590568554], [-121.4665174484253, 47.2153123770934]]]}, "properties": {"fid": 95129, "ogc_fid": 95129, "path": "/us/wa/king/enumclaw-plateau/95129", "ll_uuid": "96e05ccd-8c0b-4d9e-b716-75d86cf9d93d", "owner": "DEPT OF NATURAL RESOURCES", "parcelnumb": "1320109017"}, "id": 138}]}