{
  "type": "FeatureCollection",
  "generator": "overpass-turbo",
  "copyright": "The data included in this document is from www.openstreetmap.org. The data is made available under ODbL.",
  "timestamp": "2025-12-20T02:51:52Z",
  "features": [
    {
      "type": "Feature",
      "properties": {
        "@id": "way/577601007",
        "access": "no",
        "boundary": "protected_area",
        "landuse": "reservoir_watershed",
        "name": "Cedar River Municipal Watershed",
        "operator": "Seattle Public Utilities",
        "owner": "City of Seattle",
        "ownership": "municipal",
        "protect_class": "6",
        "source": "TOPO Maps",
        "type": "boundary"
      },
      "geometry": {
        "type": "Polygon",
        "coordinates": [
          [
            [
              -121.7168213,
              47.4300047
            ],
            [
              -121.7168221,
              47.4299602
            ],
            [
              -121.7173141,
              47.4298982
            ],
            [
              -121.7181516,
              47.430102
            ],
            [
              -121.7192084,
              47.4305169
            ],
            [
              -121.7195861,
              47.430795
            ],
            [
              -121.7225679,
              47.4295507
            ],
            [
              -121.7270264,
              47.4278051
            ],
            [
              -121.7286442,
              47.4277958
            ],
            [
              -121.7286636,
              47.4277551
            ],
            [
              -121.7294499,
              47.4277979
            ],
            [
              -121.7298157,
              47.4277943
            ],
            [
              -121.7298178,
              47.426867
            ],
            [
              -121.7381761,
              47.4270121
            ],
            [
              -121.7451411,
              47.4270555
            ],
            [
              -121.7593763,
              47.4270246
            ],
            [
              -121.7593271,
              47.4397765
            ],
            [
              -121.7699981,
              47.4397568
            ],
            [
              -121.7700471,
              47.4414865
            ],
            [
              -121.7806779,
              47.441606
            ],
            [
              -121.7902668,
              47.4418507
            ],
            [
              -121.8016746,
              47.4417186
            ],
            [
              -121.8079861,
              47.4417044
            ],
            [
              -121.8122298,
              47.4416946
            ],
            [
              -121.8121315,
              47.4380927
            ],
            [
              -121.8124145,
              47.4380931
            ],
            [
              -121.8227206,
              47.4381066
            ],
            [
              -121.8237952,
              47.4381171
            ],
            [
              -121.8280808,
              47.4381587
            ],
            [
              -121.8280567,
              47.4345911
            ],
            [
              -121.8285039,
              47.434595
            ],
            [
              -121.833457,
              47.4346383
            ],
            [
              -121.8334343,
              47.427535
            ],
            [
              -121.8437655,
              47.427533
            ],
            [
              -121.8474229,
              47.4275723
            ],
            [
              -121.8544793,
              47.4276454
            ],
            [
              -121.8572241,
              47.4276815
            ],
            [
              -121.8598488,
              47.4277161
            ],
            [
              -121.8598745,
              47.4313416
            ],
            [
              -121.8652193,
              47.4314091
            ],
            [
              -121.8652478,
              47.4350187
            ],
            [
              -121.8652947,
              47.438568
            ],
            [
              -121.8652945,
              47.4386283
            ],
            [
              -121.8706302,
              47.4386806
            ],
            [
              -121.8706307,
              47.4388553
            ],
            [
              -121.8706402,
              47.4422974
            ],
            [
              -121.8787732,
              47.4423874
            ],
            [
              -121.87957,
              47.4434212
            ],
            [
              -121.8801554,
              47.4440591
            ],
            [
              -121.8817003,
              47.444609
            ],
            [
              -121.8866602,
              47.4481722
            ],
            [
              -121.8866827,
              47.4497359
            ],
            [
              -121.886737,
              47.453425
            ],
            [
              -121.9080659,
              47.4533039
            ],
            [
              -121.9189,
              47.4535034
            ],
            [
              -121.9188269,
              47.4427618
            ],
            [
              -121.9187706,
              47.4283167
            ],
            [
              -121.9229392,
              47.4283683
            ],
            [
              -121.9293972,
              47.4284478
            ],
            [
              -121.9315467,
              47.4285003
            ],
            [
              -121.933632,
              47.4285511
            ],
            [
              -121.9336577,
              47.4276817
            ],
            [
              -121.9336766,
              47.4270429
            ],
            [
              -121.9336973,
              47.4263457
            ],
            [
              -121.9337692,
              47.4239137
            ],
            [
              -121.9337932,
              47.4231048
            ],
            [
              -121.9337456,
              47.4212127
            ],
            [
              -121.9337024,
              47.41949
            ],
            [
              -121.9334622,
              47.4157305
            ],
            [
              -121.9380349,
              47.4157017
            ],
            [
              -121.9383038,
              47.4155772
            ],
            [
              -121.9384312,
              47.4150407
            ],
            [
              -121.9387427,
              47.4145809
            ],
            [
              -121.9393514,
              47.4144276
            ],
            [
              -121.9399602,
              47.4143797
            ],
            [
              -121.9408096,
              47.414418
            ],
            [
              -121.9414183,
              47.4145809
            ],
            [
              -121.9442638,
              47.415673
            ],
            [
              -121.9446744,
              47.4157305
            ],
            [
              -121.9477747,
              47.41574
            ],
            [
              -121.9477747,
              47.4152706
            ],
            [
              -121.9494311,
              47.4152036
            ],
            [
              -121.9494877,
              47.4085741
            ],
            [
              -121.9506344,
              47.4085741
            ],
            [
              -121.9507476,
              47.4049907
            ],
            [
              -121.954839,
              47.404962
            ],
            [
              -121.9548673,
              47.3976987
            ],
            [
              -121.9654141,
              47.3977275
            ],
            [
              -121.9656123,
              47.3947375
            ],
            [
              -121.96786,
              47.3940618
            ],
            [
              -121.9734127,
              47.3940763
            ],
            [
              -121.973556,
              47.3922422
            ],
            [
              -121.9736062,
              47.3854164
            ],
            [
              -121.9735989,
              47.3850983
            ],
            [
              -121.973576,
              47.3848863
            ],
            [
              -121.9735252,
              47.3847355
            ],
            [
              -121.9734714,
              47.3845968
            ],
            [
              -121.9731819,
              47.3840875
            ],
            [
              -121.972235,
              47.382417
            ],
            [
              -121.97115,
              47.380528
            ],
            [
              -121.970491,
              47.379393
            ],
            [
              -121.970215,
              47.378879
            ],
            [
              -121.970049,
              47.378424
            ],
            [
              -121.9698086,
              47.3777277
            ],
            [
              -121.9696522,
              47.3771377
            ],
            [
              -121.9696018,
              47.3767441
            ],
            [
              -121.9696499,
              47.3765668
            ],
            [
              -121.9697476,
              47.3764737
            ],
            [
              -121.9697894,
              47.3763697
            ],
            [
              -121.9698541,
              47.3762147
            ],
            [
              -121.9701416,
              47.3759681
            ],
            [
              -121.970556,
              47.375635
            ],
            [
              -121.971044,
              47.375162
            ],
            [
              -121.971189,
              47.375023
            ],
            [
              -121.971226,
              47.374986
            ],
            [
              -121.971588,
              47.374635
            ],
            [
              -121.971788,
              47.374442
            ],
            [
              -121.971892,
              47.374351
            ],
            [
              -121.972003,
              47.374274
            ],
            [
              -121.9721214,
              47.3742081
            ],
            [
              -121.97224,
              47.374142
            ],
            [
              -121.972455,
              47.374041
            ],
            [
              -121.9725827,
              47.3739944
            ],
            [
              -121.972778,
              47.373923
            ],
            [
              -121.9730773,
              47.3738288
            ],
            [
              -121.973316,
              47.3737857
            ],
            [
              -121.973612,
              47.37375
            ],
            [
              -121.973738,
              47.373748
            ],
            [
              -121.9737666,
              47.3725091
            ],
            [
              -121.9334056,
              47.3724611
            ],
            [
              -121.9333773,
              47.365318
            ],
            [
              -121.9119864,
              47.3651071
            ],
            [
              -121.9119722,
              47.3723269
            ],
            [
              -121.8907654,
              47.3724899
            ],
            [
              -121.8906663,
              47.3798429
            ],
            [
              -121.8801902,
              47.3798333
            ],
            [
              -121.8801336,
              47.3763055
            ],
            [
              -121.8695585,
              47.3762001
            ],
            [
              -121.8696434,
              47.3772259
            ],
            [
              -121.866628,
              47.3771204
            ],
            [
              -121.8619846,
              47.3751551
            ],
            [
              -121.8695302,
              47.3736212
            ],
            [
              -121.8695727,
              47.3725187
            ],
            [
              -121.8480827,
              47.3720297
            ],
            [
              -121.8485484,
              47.363112
            ],
            [
              -121.8485994,
              47.3621449
            ],
            [
              -121.8349504,
              47.3577205
            ],
            [
              -121.8190196,
              47.3432493
            ],
            [
              -121.8184179,
              47.3432501
            ],
            [
              -121.794497,
              47.3430196
            ],
            [
              -121.7947276,
              47.3361936
            ],
            [
              -121.7840193,
              47.3360707
            ],
            [
              -121.7840807,
              47.3291708
            ],
            [
              -121.7786973,
              47.3292033
            ],
            [
              -121.7787613,
              47.3265562
            ],
            [
              -121.7733715,
              47.3265975
            ],
            [
              -121.7733897,
              47.3255889
            ],
            [
              -121.7680204,
              47.3256058
            ],
            [
              -121.7626824,
              47.325646
            ],
            [
              -121.7626164,
              47.3292667
            ],
            [
              -121.757311,
              47.3291504
            ],
            [
              -121.7572467,
              47.3325058
            ],
            [
              -121.7519136,
              47.3323851
            ],
            [
              -121.7412733,
              47.332139
            ],
            [
              -121.7413739,
              47.3354657
            ],
            [
              -121.7305797,
              47.3354337
            ],
            [
              -121.7305148,
              47.3393495
            ],
            [
              -121.7199361,
              47.3393204
            ],
            [
              -121.7199251,
              47.3365377
            ],
            [
              -121.7198941,
              47.3286151
            ],
            [
              -121.7199798,
              47.3259067
            ],
            [
              -121.7201337,
              47.3210731
            ],
            [
              -121.7176576,
              47.3210421
            ],
            [
              -121.7176842,
              47.3200997
            ],
            [
              -121.7151893,
              47.3200819
            ],
            [
              -121.7152157,
              47.317297
            ],
            [
              -121.7099091,
              47.317297
            ],
            [
              -121.7099402,
              47.3154712
            ],
            [
              -121.7019531,
              47.3155264
            ],
            [
              -121.701961,
              47.3146391
            ],
            [
              -121.6992968,
              47.3146399
            ],
            [
              -121.6992454,
              47.3195139
            ],
            [
              -121.6974444,
              47.3197702
            ],
            [
              -121.6961998,
              47.3205702
            ],
            [
              -121.6947836,
              47.3210503
            ],
            [
              -121.6936034,
              47.3207884
            ],
            [
              -121.6912718,
              47.3204693
            ],
            [
              -121.6900313,
              47.3205342
            ],
            [
              -121.6880154,
              47.3207904
            ],
            [
              -121.6872812,
              47.3214316
            ],
            [
              -121.6860051,
              47.3220034
            ],
            [
              -121.6845365,
              47.3228463
            ],
            [
              -121.6841844,
              47.3220486
            ],
            [
              -121.6835963,
              47.3209295
            ],
            [
              -121.6827671,
              47.3204854
            ],
            [
              -121.6826094,
              47.3200977
            ],
            [
              -121.6826822,
              47.3197666
            ],
            [
              -121.6825742,
              47.3194647
            ],
            [
              -121.6824142,
              47.3192232
            ],
            [
              -121.6819941,
              47.3185406
            ],
            [
              -121.6819718,
              47.3182784
            ],
            [
              -121.6819074,
              47.3181453
            ],
            [
              -121.681394,
              47.31753
            ],
            [
              -121.6809489,
              47.3170049
            ],
            [
              -121.6807245,
              47.3166807
            ],
            [
              -121.6806612,
              47.3157196
            ],
            [
              -121.6807314,
              47.3154415
            ],
            [
              -121.6807464,
              47.3151348
            ],
            [
              -121.6807101,
              47.3149386
            ],
            [
              -121.6803552,
              47.3145662
            ],
            [
              -121.6798369,
              47.3143842
            ],
            [
              -121.6792211,
              47.3141844
            ],
            [
              -121.6792044,
              47.3140772
            ],
            [
              -121.6787918,
              47.3139399
            ],
            [
              -121.6779328,
              47.3137823
            ],
            [
              -121.6779263,
              47.3136223
            ],
            [
              -121.6778192,
              47.313622
            ],
            [
              -121.6762227,
              47.3122783
            ],
            [
              -121.6748709,
              47.3118128
            ],
            [
              -121.6721887,
              47.3095723
            ],
            [
              -121.6710514,
              47.3091067
            ],
            [
              -121.6693133,
              47.3088739
            ],
            [
              -121.6680473,
              47.3086266
            ],
            [
              -121.6668243,
              47.3080882
            ],
            [
              -121.6650433,
              47.3070552
            ],
            [
              -121.6637773,
              47.3063132
            ],
            [
              -121.6630906,
              47.3062259
            ],
            [
              -121.6620971,
              47.3061215
            ],
            [
              -121.6603226,
              47.3059349
            ],
            [
              -121.6586489,
              47.3060367
            ],
            [
              -121.6552371,
              47.3059203
            ],
            [
              -121.646418,
              47.3058767
            ],
            [
              -121.6465038,
              47.2985866
            ],
            [
              -121.6488642,
              47.298703
            ],
            [
              -121.649186,
              47.2974806
            ],
            [
              -121.6440147,
              47.2918048
            ],
            [
              -121.6406244,
              47.2908879
            ],
            [
              -121.6375345,
              47.290786
            ],
            [
              -121.6359037,
              47.2908152
            ],
            [
              -121.6358823,
              47.2914119
            ],
            [
              -121.6307968,
              47.2913537
            ],
            [
              -121.6306252,
              47.2878169
            ],
            [
              -121.6205615,
              47.2877296
            ],
            [
              -121.6204971,
              47.29131
            ],
            [
              -121.6154009,
              47.2912663
            ],
            [
              -121.6153688,
              47.2932238
            ],
            [
              -121.613856,
              47.2938351
            ],
            [
              -121.6120321,
              47.2941043
            ],
            [
              -121.6096825,
              47.2945264
            ],
            [
              -121.6076655,
              47.2957925
            ],
            [
              -121.6064316,
              47.2965856
            ],
            [
              -121.6057021,
              47.296964
            ],
            [
              -121.6052407,
              47.2969276
            ],
            [
              -121.6045541,
              47.2968985
            ],
            [
              -121.6039855,
              47.297044
            ],
            [
              -121.6014427,
              47.2976334
            ],
            [
              -121.6008956,
              47.2983464
            ],
            [
              -121.594299,
              47.2984263
            ],
            [
              -121.5942744,
              47.3020107
            ],
            [
              -121.5929176,
              47.3020022
            ],
            [
              -121.5917538,
              47.3018163
            ],
            [
              -121.5907612,
              47.3008861
            ],
            [
              -121.5866753,
              47.300119
            ],
            [
              -121.5857856,
              47.3003734
            ],
            [
              -121.5828844,
              47.2997508
            ],
            [
              -121.5813398,
              47.298453
            ],
            [
              -121.582836,
              47.2984499
            ],
            [
              -121.5827909,
              47.2948013
            ],
            [
              -121.572707,
              47.294795
            ],
            [
              -121.5727032,
              47.2956281
            ],
            [
              -121.5707471,
              47.2956178
            ],
            [
              -121.5686328,
              47.2950246
            ],
            [
              -121.5663848,
              47.2960048
            ],
            [
              -121.5658431,
              47.2959216
            ],
            [
              -121.5652899,
              47.2960106
            ],
            [
              -121.5638016,
              47.2956487
            ],
            [
              -121.5630308,
              47.2956402
            ],
            [
              -121.5608323,
              47.2962422
            ],
            [
              -121.5605232,
              47.2965766
            ],
            [
              -121.5603013,
              47.2958764
            ],
            [
              -121.5607261,
              47.2950504
            ],
            [
              -121.5606421,
              47.2945109
            ],
            [
              -121.5597459,
              47.2921932
            ],
            [
              -121.5590319,
              47.2908034
            ],
            [
              -121.5579683,
              47.2890455
            ],
            [
              -121.5575609,
              47.2874793
            ],
            [
              -121.5571523,
              47.2870045
            ],
            [
              -121.5572048,
              47.2839919
            ],
            [
              -121.5525119,
              47.2840264
            ],
            [
              -121.5518503,
              47.2842329
            ],
            [
              -121.5518546,
              47.2840344
            ],
            [
              -121.5402776,
              47.2839926
            ],
            [
              -121.538647,
              47.2829278
            ],
            [
              -121.5358771,
              47.2831053
            ],
            [
              -121.5305774,
              47.2834267
            ],
            [
              -121.5306557,
              47.2803735
            ],
            [
              -121.5092834,
              47.280139
            ],
            [
              -121.5092973,
              47.2828946
            ],
            [
              -121.508519,
              47.2836954
            ],
            [
              -121.5039485,
              47.2837276
            ],
            [
              -121.5013606,
              47.283735
            ],
            [
              -121.4998411,
              47.2829787
            ],
            [
              -121.5003284,
              47.2826397
            ],
            [
              -121.4991852,
              47.2820508
            ],
            [
              -121.4980074,
              47.2822783
            ],
            [
              -121.4974745,
              47.2819392
            ],
            [
              -121.4974045,
              47.2818688
            ],
            [
              -121.4964945,
              47.2817999
            ],
            [
              -121.4951013,
              47.2821268
            ],
            [
              -121.4924355,
              47.2819469
            ],
            [
              -121.4918347,
              47.2815435
            ],
            [
              -121.4911606,
              47.2815565
            ],
            [
              -121.4898622,
              47.2804483
            ],
            [
              -121.4908966,
              47.2785843
            ],
            [
              -121.4879209,
              47.2782825
            ],
            [
              -121.4880589,
              47.2693265
            ],
            [
              -121.4828658,
              47.2693265
            ],
            [
              -121.4823801,
              47.268997
            ],
            [
              -121.4813527,
              47.2685153
            ],
            [
              -121.4801572,
              47.2681604
            ],
            [
              -121.4794287,
              47.2671844
            ],
            [
              -121.4787936,
              47.2663604
            ],
            [
              -121.4779343,
              47.2661449
            ],
            [
              -121.4767388,
              47.2658027
            ],
            [
              -121.4760103,
              47.2657139
            ],
            [
              -121.4751136,
              47.2658914
            ],
            [
              -121.4734698,
              47.2665506
            ],
            [
              -121.4719034,
              47.2669383
            ],
            [
              -121.4695515,
              47.2686516
            ],
            [
              -121.4696673,
              47.268831
            ],
            [
              -121.4695147,
              47.2689887
            ],
            [
              -121.4693512,
              47.2689871
            ],
            [
              -121.4688949,
              47.2691611
            ],
            [
              -121.4665898,
              47.2691409
            ],
            [
              -121.4665888,
              47.2705652
            ],
            [
              -121.4638301,
              47.2706111
            ],
            [
              -121.4630837,
              47.2713165
            ],
            [
              -121.4631024,
              47.2725206
            ],
            [
              -121.4622244,
              47.273129
            ],
            [
              -121.4624299,
              47.2736867
            ],
            [
              -121.4620003,
              47.274688
            ],
            [
              -121.4618508,
              47.2754864
            ],
            [
              -121.4606366,
              47.2773621
            ],
            [
              -121.460151,
              47.2787435
            ],
            [
              -121.4603564,
              47.2800742
            ],
            [
              -121.4603191,
              47.2812147
            ],
            [
              -121.4598147,
              47.2819877
            ],
            [
              -121.4594224,
              47.2824819
            ],
            [
              -121.4594411,
              47.2828748
            ],
            [
              -121.4586005,
              47.2841546
            ],
            [
              -121.4582269,
              47.2853458
            ],
            [
              -121.4501945,
              47.2853965
            ],
            [
              -121.4502319,
              47.2927328
            ],
            [
              -121.4555183,
              47.2926948
            ],
            [
              -121.455568,
              47.2999083
            ],
            [
              -121.4548221,
              47.2999177
            ],
            [
              -121.4496565,
              47.3010105
            ],
            [
              -121.4488469,
              47.3041426
            ],
            [
              -121.446808,
              47.3050526
            ],
            [
              -121.4460868,
              47.3058696
            ],
            [
              -121.4448671,
              47.3067697
            ],
            [
              -121.4448277,
              47.3089165
            ],
            [
              -121.4448108,
              47.3109552
            ],
            [
              -121.4395282,
              47.3108854
            ],
            [
              -121.4395096,
              47.3144063
            ],
            [
              -121.4415024,
              47.3144376
            ],
            [
              -121.4412468,
              47.3152801
            ],
            [
              -121.4406304,
              47.3159513
            ],
            [
              -121.4383141,
              47.3174583
            ],
            [
              -121.4391547,
              47.3193705
            ],
            [
              -121.4398084,
              47.3209408
            ],
            [
              -121.4397524,
              47.322397
            ],
            [
              -121.4390986,
              47.3237519
            ],
            [
              -121.4382954,
              47.3246889
            ],
            [
              -121.4373053,
              47.3254106
            ],
            [
              -121.4372493,
              47.3267401
            ],
            [
              -121.4364461,
              47.3278543
            ],
            [
              -121.4356802,
              47.3287153
            ],
            [
              -121.4351011,
              47.3289305
            ],
            [
              -121.4344847,
              47.3289432
            ],
            [
              -121.4343539,
              47.336066
            ],
            [
              -121.4396715,
              47.3361101
            ],
            [
              -121.4396715,
              47.343295
            ],
            [
              -121.4425305,
              47.3433139
            ],
            [
              -121.4431474,
              47.3435974
            ],
            [
              -121.4434665,
              47.3436228
            ],
            [
              -121.4438179,
              47.343741
            ],
            [
              -121.4440218,
              47.3438482
            ],
            [
              -121.444872,
              47.3439409
            ],
            [
              -121.4453146,
              47.3442335
            ],
            [
              -121.4462346,
              47.3447169
            ],
            [
              -121.4475623,
              47.3454694
            ],
            [
              -121.4485413,
              47.3458874
            ],
            [
              -121.4487344,
              47.3461527
            ],
            [
              -121.4488471,
              47.3467942
            ],
            [
              -121.4490911,
              47.346985
            ],
            [
              -121.4493406,
              47.3474503
            ],
            [
              -121.4500219,
              47.3478537
            ],
            [
              -121.450451,
              47.3478465
            ],
            [
              -121.4518136,
              47.3479737
            ],
            [
              -121.452165,
              47.3481572
            ],
            [
              -121.4538521,
              47.3487315
            ],
            [
              -121.454815,
              47.3490313
            ],
            [
              -121.4551905,
              47.3494039
            ],
            [
              -121.4558262,
              47.3494838
            ],
            [
              -121.4563975,
              47.3498364
            ],
            [
              -121.45695,
              47.3499672
            ],
            [
              -121.4572772,
              47.3501817
            ],
            [
              -121.4578781,
              47.351014
            ],
            [
              -121.4591628,
              47.3517118
            ],
            [
              -121.4599219,
              47.3523659
            ],
            [
              -121.4608902,
              47.352653
            ],
            [
              -121.4614239,
              47.352902
            ],
            [
              -121.462478,
              47.352733
            ],
            [
              -121.4642161,
              47.3526967
            ],
            [
              -121.4656484,
              47.3522206
            ],
            [
              -121.4682072,
              47.3518935
            ],
            [
              -121.4694339,
              47.3519398
            ],
            [
              -121.4697555,
              47.3521019
            ],
            [
              -121.4705437,
              47.3522437
            ],
            [
              -121.4709119,
              47.3524814
            ],
            [
              -121.472189,
              47.3528134
            ],
            [
              -121.4728149,
              47.3527448
            ],
            [
              -121.4739283,
              47.35322
            ],
            [
              -121.4747203,
              47.3533713
            ],
            [
              -121.4752465,
              47.353331
            ],
            [
              -121.4759762,
              47.3530924
            ],
            [
              -121.4770673,
              47.3536224
            ],
            [
              -121.4776289,
              47.3535316
            ],
            [
              -121.4781041,
              47.3534948
            ],
            [
              -121.4786623,
              47.3531029
            ],
            [
              -121.4791539,
              47.3531502
            ],
            [
              -121.4802347,
              47.3529388
            ],
            [
              -121.4808679,
              47.3526485
            ],
            [
              -121.4825874,
              47.3522062
            ],
            [
              -121.4833874,
              47.3521351
            ],
            [
              -121.4833792,
              47.3518369
            ],
            [
              -121.4835835,
              47.3515525
            ],
            [
              -121.4835595,
              47.3541032
            ],
            [
              -121.4845598,
              47.3541037
            ],
            [
              -121.4853176,
              47.3541094
            ],
            [
              -121.4888769,
              47.3541332
            ],
            [
              -121.4888796,
              47.3537161
            ],
            [
              -121.4889009,
              47.3503784
            ],
            [
              -121.5047615,
              47.3504629
            ],
            [
              -121.5047308,
              47.3496632
            ],
            [
              -121.5054984,
              47.3497269
            ],
            [
              -121.5062288,
              47.3498624
            ],
            [
              -121.5071553,
              47.3501937
            ],
            [
              -121.5078204,
              47.3504912
            ],
            [
              -121.5093011,
              47.3512061
            ],
            [
              -121.5102588,
              47.352172
            ],
            [
              -121.5107243,
              47.3528743
            ],
            [
              -121.5109726,
              47.35345
            ],
            [
              -121.5111026,
              47.3540257
            ],
            [
              -121.5100695,
              47.3540167
            ],
            [
              -121.5100674,
              47.3578168
            ],
            [
              -121.5260725,
              47.3576289
            ],
            [
              -121.5260614,
              47.3565601
            ],
            [
              -121.5263149,
              47.3565221
            ],
            [
              -121.5264724,
              47.3565372
            ],
            [
              -121.5270797,
              47.3564963
            ],
            [
              -121.5283246,
              47.3557032
            ],
            [
              -121.5291007,
              47.3553847
            ],
            [
              -121.5303153,
              47.3549869
            ],
            [
              -121.5311815,
              47.3547256
            ],
            [
              -121.5319702,
              47.3546119
            ],
            [
              -121.53277,
              47.3544172
            ],
            [
              -121.5341885,
              47.3541191
            ],
            [
              -121.5368483,
              47.3541632
            ],
            [
              -121.5368302,
              47.3547796
            ],
            [
              -121.5372661,
              47.3549869
            ],
            [
              -121.5386661,
              47.3556656
            ],
            [
              -121.5387905,
              47.3560583
            ],
            [
              -121.5385242,
              47.3568043
            ],
            [
              -121.5384995,
              47.3581812
            ],
            [
              -121.5394143,
              47.3593762
            ],
            [
              -121.5395788,
              47.3595911
            ],
            [
              -121.5418733,
              47.3624415
            ],
            [
              -121.5420328,
              47.3626531
            ],
            [
              -121.5422154,
              47.3627765
            ],
            [
              -121.5425268,
              47.3628209
            ],
            [
              -121.5438924,
              47.3624653
            ],
            [
              -121.5464123,
              47.3619914
            ],
            [
              -121.5474414,
              47.361814
            ],
            [
              -121.5474378,
              47.3651172
            ],
            [
              -121.558131,
              47.365105
            ],
            [
              -121.5580694,
              47.3687611
            ],
            [
              -121.5677856,
              47.3689587
            ],
            [
              -121.5672285,
              47.3696723
            ],
            [
              -121.5672191,
              47.3703115
            ],
            [
              -121.5679458,
              47.3707461
            ],
            [
              -121.5687131,
              47.3706695
            ],
            [
              -121.5686805,
              47.3726006
            ],
            [
              -121.5899856,
              47.3723682
            ],
            [
              -121.5916405,
              47.3723502
            ],
            [
              -121.5930331,
              47.3728342
            ],
            [
              -121.5937109,
              47.3729261
            ],
            [
              -121.5958184,
              47.3736188
            ],
            [
              -121.5977779,
              47.3743115
            ],
            [
              -121.598231,
              47.3745416
            ],
            [
              -121.5983695,
              47.374612
            ],
            [
              -121.5985132,
              47.3747131
            ],
            [
              -121.599947,
              47.375722
            ],
            [
              -121.6015491,
              47.3762728
            ],
            [
              -121.602572,
              47.3767068
            ],
            [
              -121.6032622,
              47.3779503
            ],
            [
              -121.6037305,
              47.3792187
            ],
            [
              -121.6038538,
              47.3804204
            ],
            [
              -121.603595,
              47.3816889
            ],
            [
              -121.6038168,
              47.3816472
            ],
            [
              -121.6055668,
              47.3811798
            ],
            [
              -121.6087711,
              47.3812132
            ],
            [
              -121.6112853,
              47.381305
            ],
            [
              -121.6113222,
              47.3830407
            ],
            [
              -121.6161533,
              47.3830574
            ],
            [
              -121.6194192,
              47.3849933
            ],
            [
              -121.6199738,
              47.3855858
            ],
            [
              -121.6200478,
              47.3860864
            ],
            [
              -121.6200354,
              47.3864369
            ],
            [
              -121.6203805,
              47.3868958
            ],
            [
              -121.6206516,
              47.3873714
            ],
            [
              -121.6207009,
              47.387847
            ],
            [
              -121.6216622,
              47.3879805
            ],
            [
              -121.6229316,
              47.3882976
            ],
            [
              -121.6241394,
              47.3885229
            ],
            [
              -121.6247802,
              47.3886814
            ],
            [
              -121.6252609,
              47.3930867
            ],
            [
              -121.6262961,
              47.3940545
            ],
            [
              -121.6271711,
              47.3949221
            ],
            [
              -121.6271332,
              47.3965019
            ],
            [
              -121.6271114,
              47.3974178
            ],
            [
              -121.6271028,
              47.3977784
            ],
            [
              -121.6270233,
              47.4011121
            ],
            [
              -121.632335,
              47.4011371
            ],
            [
              -121.6323227,
              47.3995522
            ],
            [
              -121.6343315,
              47.3993103
            ],
            [
              -121.636402,
              47.3993937
            ],
            [
              -121.6380904,
              47.399377
            ],
            [
              -121.6387682,
              47.3996106
            ],
            [
              -121.6400499,
              47.4004781
            ],
            [
              -121.6415535,
              47.4010037
            ],
            [
              -121.6437965,
              47.4015375
            ],
            [
              -121.64758,
              47.4023634
            ],
            [
              -121.6489603,
              47.4024718
            ],
            [
              -121.6507227,
              47.4020047
            ],
            [
              -121.652066,
              47.4015626
            ],
            [
              -121.6536065,
              47.4006199
            ],
            [
              -121.6536065,
              47.404799
            ],
            [
              -121.6747821,
              47.4050181
            ],
            [
              -121.6748288,
              47.4122389
            ],
            [
              -121.6748535,
              47.4156915
            ],
            [
              -121.6854769,
              47.4157499
            ],
            [
              -121.6854523,
              47.4193274
            ],
            [
              -121.6959319,
              47.4194193
            ],
            [
              -121.6959335,
              47.4265941
            ],
            [
              -121.6961458,
              47.4284808
            ],
            [
              -121.6961762,
              47.4287514
            ],
            [
              -121.6962345,
              47.4292687
            ],
            [
              -121.696317,
              47.4300023
            ],
            [
              -121.6964793,
              47.4300023
            ],
            [
              -121.7168213,
              47.4300047
            ]
          ]
        ]
      },
      "id": "way/577601007"
    }
  ]
}