{"type":"FeatureCollection","features":[{"type":"Feature","properties":{"access":"questionable","stroke":"#555555","stroke-width":2,"stroke-opacity":1,"fill":"#f8e45c","fill-opacity":0.5},"geometry":{"coordinates":[[[-121.42539967127637,47.15639289540516],[-121.42567873290153,47.16633634142332],[-121.42686441367083,47.167678935384316],[-121.42589348134196,47.16895574285914],[-121.42589515674942,47.17009425762669],[-121.40365735945132,47.17011738611919],[-121.40383169770743,47.18463128710093],[-121.42515578072918,47.184751069907605],[-121.4255100473988,47.21321535337148],[-121.43217301633257,47.213235216782635],[-121.43218720379548,47.20855170247634],[-121.43603315954168,47.208546349216476],[-121.43605321556406,47.20598190500047],[-121.44661113761178,47.20595225189629],[-121.44636171579965,47.158803593480485],[-121.44383136064452,47.15880794249901],[-121.44373529627372,47.156529599472094],[-121.42539967127637,47.15639289540516]]],"type":"Polygon"}},{"type":"Feature","properties":{"access":"knownGood","stroke":"#555555","stroke-width":2,"stroke-opacity":1,"fill":"#57e389","fill-opacity":0.5},"geometry":{"coordinates":[[[-121.45440465248822,47.21814339403005],[-121.43417589793881,47.213637994518734],[-121.42539855520857,47.213195564003115],[-121.41283438861096,47.207923186818675],[-121.41091724460165,47.204946237561444],[-121.40857458418289,47.20279690003974],[-121.40847384776883,47.20119805915928],[-121.40582489372818,47.19909566896618],[-121.41478331421871,47.19899408547027],[-121.42509735347373,47.19903852525631],[-121.42512683351187,47.184763604510444],[-121.40378704635943,47.18465667922173],[-121.40363851646705,47.17010836188783],[-121.4250890732205,47.17008308121437],[-121.42586789301966,47.170081770616775],[-121.42581957885602,47.16893975721018],[-121.42681326444769,47.16769246369813],[-121.42560299822132,47.16635480228186],[-121.42536545955436,47.156385691692805],[-121.4251455080937,47.141460315789374],[-121.44663424880086,47.14131606520138],[-121.46192671606516,47.140394267480616],[-121.45651701700234,47.13241966552337],[-121.42566642099379,47.1285377578028],[-121.40617517405158,47.1171825078504],[-121.39311538078611,47.132486047484804],[-121.3626510868135,47.1407811615982],[-121.33466006465756,47.13241346413187],[-121.31311253521841,47.13419702917247],[-121.30180622699534,47.138767141557906],[-121.297873598048,47.14952207542564],[-121.30414179550768,47.16270258831028],[-121.31255286861598,47.16317915672775],[-121.31833548137814,47.173900815892694],[-121.30423721524713,47.191447317434324],[-121.31239587308687,47.199587576947835],[-121.30847145539184,47.20386772967339],[-121.31995352722504,47.21376692231499],[-121.33525557840089,47.21876640318325],[-121.36682816500452,47.226264740681046],[-121.35908029099153,47.2407322183854],[-121.33777363745534,47.247044061811295],[-121.33118794454415,47.25795651658234],[-121.34360330928152,47.28313263116985],[-121.35887325638859,47.28507486405263],[-121.35982762808304,47.292195774538726],[-121.37080290256633,47.289390681821914],[-121.37048477866819,47.28583015758235],[-121.39068564619535,47.286369646358],[-121.39498031881914,47.288203867039016],[-121.41072745177303,47.289822244231374],[-121.41756711558159,47.293706147454714],[-121.41947585897009,47.28723281695437],[-121.43140550514741,47.293706147454714],[-121.43140550514741,47.30535614577241],[-121.44333515132475,47.30783683238542],[-121.44831408485813,47.30399712531323],[-121.44998712423805,47.301206789866],[-121.45600102254924,47.29918293794677],[-121.45509667693874,47.29216018433692],[-121.45229320554544,47.2920988461363],[-121.45039407976265,47.29078005760593],[-121.44989668967673,47.287099543577966],[-121.44573359988331,47.284937329269184],[-121.45755219308921,47.28276005728213],[-121.4601847917502,47.2770874280919],[-121.4632056490012,47.27097721176665],[-121.46685347662472,47.26962358738237],[-121.47135626384798,47.268231251897646],[-121.4754600699246,47.26687755728358],[-121.47625803221722,47.265175720650944],[-121.48139280131807,47.269152924698005],[-121.48555394329676,47.26883648977869],[-121.49254896645058,47.26822795577155],[-121.48910526274386,47.264600947975964],[-121.48673465547611,47.2581316516289],[-121.49019380605796,47.248851780582584],[-121.49526722691121,47.25086442082653],[-121.50050731935096,47.24565095685466],[-121.5075312560376,47.242417615260706],[-121.50960346570392,47.22770975819017],[-121.51246735687789,47.21942950946874],[-121.50838440218905,47.21701186952856],[-121.4940882102716,47.21857145504259],[-121.48686452120701,47.222055563310846],[-121.48231045636177,47.22049129812419],[-121.4735687456818,47.22170005254816],[-121.4598104206101,47.22406804856604],[-121.45440465248822,47.21814339403005]]],"type":"Polygon"}},{"type":"Feature","properties":{"access":"knownGood","stroke":"#555555","stroke-width":2,"stroke-opacity":1,"fill":"#57e389","fill-opacity":0.5},"geometry":{"coordinates":[[[-121.49100457417444,47.14578099934704],[-121.46207932050612,47.1404683996129],[-121.45739333710537,47.14071854551804],[-121.4466292049807,47.14133629052097],[-121.4251249083872,47.14151840551182],[-121.42539675109172,47.15637527952444],[-121.44376491605487,47.15650184881733],[-121.44385369748917,47.158768656717626],[-121.4490157116237,47.158817873965745],[-121.44984925871194,47.15639633751104],[-121.46784591720494,47.15631572329323],[-121.46764502417399,47.1701283494304],[-121.49250282763029,47.170176062290324],[-121.49100457417444,47.14578099934704]]],"type":"Polygon"}}]}
