{"type": "FeatureCollection", "features": [{"type": "Feature", "geometry": {"type": "Polygon", "coordinates": [[[-121.45484447479248, 47.21714879788527], [-121.45484447479248, 47.217265393883594], [-121.45411491394043, 47.217265393883594], [-121.45411491394043, 47.21714879788527], [-121.45484447479248, 47.21714879788527]]]}, "properties": {"fid": 2244, "ogc_fid": 2244, "path": "/us/wa/king/enumclaw-plateau/2244", "ll_uuid": "13898453-7144-41b3-9c53-be4fefbc4fc3", "owner": "STAFFORD ALLEN", "parcelnumb": "0025000210"}, "id": 109}, {"type": "Feature", "geometry": {"type": "Polygon", "coordinates": [[[-121.45561695098877, 47.2189268590017], [-121.45565986633301, 47.218956007047865], [-121.45471572875977, 47.218956007047865], [-121.45467281341553, 47.218810266656845], [-121.45557403564453, 47.2188394147671], [-121.45561695098877, 47.2189268590017]]]}, "properties": {"fid": 2242, "ogc_fid": 2242, "path": "/us/wa/king/enumclaw-plateau/2242", "ll_uuid": "e8a624d9-299b-4d2c-8826-c37f0f3957ae", "owner": "MAGEE DANIEL W", "parcelnumb": "0025000161"}, "id": 122}]}