{"type": "FeatureCollection", "features": [{"type": "Feature", "geometry": {"type": "Polygon", "coordinates": [[[-121.48758888244629, 47.21021087452476], [-121.48754596710205, 47.211231214297754], [-121.4871597290039, 47.211231214297754], [-121.4871597290039, 47.210269180183445], [-121.48758888244629, 47.21021087452476]]]}, "properties": {"fid": 193054, "ogc_fid": 193054, "path": "/us/wa/king/enumclaw-plateau/193054", "ll_uuid": "a6a3d3d5-11a4-4efd-87a4-3a811b5624fa", "owner": "ENUMCLAW SCHOOL DIST 216", "parcelnumb": "2420109027"}, "id": 154}]}