{"type": "FeatureCollection", "features": [{"type": "Feature", "geometry": {"type": "Polygon", "coordinates": [[[-121.44656181335449, 47.22242451012934], [-121.44656181335449, 47.220034473490585], [-121.44806385040283, 47.21846048808405], [-121.44806385040283, 47.218402191430926], [-121.44814968109131, 47.21834389471368], [-121.44814968109131, 47.21831474633103], [-121.44819259643555, 47.21831474633103], [-121.44819259643555, 47.21828559793235], [-121.44823551177979, 47.21825644951767], [-121.44823551177979, 47.21822730108693], [-121.44827842712402, 47.21822730108693], [-121.44827842712402, 47.218198152640184], [-121.4483642578125, 47.21813985569861], [-121.4483642578125, 47.21811070720378], [-121.44840717315674, 47.21808155869297], [-121.44845008850098, 47.21808155869297], [-121.44845008850098, 47.21805241016608], [-121.44853591918945, 47.217994113064265], [-121.44853591918945, 47.21796496448931], [-121.44857883453369, 47.21796496448931], [-121.44862174987793, 47.21793581589836], [-121.44862174987793, 47.2179066672914], [-121.44866466522217, 47.2179066672914], [-121.44866466522217, 47.21787751866836], [-121.4487075805664, 47.21787751866836], [-121.4487075805664, 47.217848370029316], [-121.44875049591064, 47.217848370029316], [-121.44875049591064, 47.21781922137424], [-121.44879341125488, 47.21781922137424], [-121.44879341125488, 47.217790072703195], [-121.44887924194336, 47.217790072703195], [-121.44887924194336, 47.21776092401609], [-121.4489221572876, 47.21776092401609], [-121.44896507263184, 47.217731775312956], [-121.44905090332031, 47.217731775312956], [-121.44905090332031, 47.21770262659379], [-121.4492654800415, 47.21770262659379], [-121.45158290863037, 47.21811070720378], [-121.45153999328613, 47.220617419190944], [-121.45153999328613, 47.22099633045903], [-121.44656181335449, 47.22242451012934]]]}, "properties": {"fid": 142848, "ogc_fid": 142848, "path": "/us/wa/king/enumclaw-plateau/142848", "ll_uuid": "c30249b9-9929-49db-a99f-aa1d9963d40a", "owner": "MUCKLESHOOT INDIAN TRIBE", "parcelnumb": "1820119030"}, "id": 154}, {"type": "Feature", "geometry": {"type": "Polygon", "coordinates": [[[-121.44471645355225, 47.223211449833855], [-121.44471645355225, 47.22294913789693], [-121.44475936889648, 47.221200358481724], [-121.44480228424072, 47.221200358481724], [-121.44548892974854, 47.220734007561845], [-121.44561767578125, 47.22058827205814], [-121.44656181335449, 47.219772145834355], [-121.44656181335449, 47.22242451012934], [-121.44566059112549, 47.222686824662105], [-121.44540309906006, 47.222745116604244], [-121.44471645355225, 47.223211449833855]]]}, "properties": {"fid": 131370, "ogc_fid": 131370, "path": "/us/wa/king/enumclaw-plateau/131370", "ll_uuid": "d69c4cf0-a789-4fa8-9096-1b01e599d9e5", "owner": "MUCKLESHOOT INDIAN TRIBE", "parcelnumb": "1720119020"}, "id": 157}]}