{"type": "FeatureCollection", "crs": {"type": "name", "properties": {"name": "EPSG:4326"}}, "features": [{"type": "Feature", "geometry": {"type": "Point", "coordinates": [-121.8935736665647, 47.27804866560408]}, "properties": {"OBJECTID": 1, "NAME": "Old Massey Gate", "CATEGORY": "Closed", "DATE": 1314082800000, "COMMENTS": " ", "GlobalID": "{F4D1F9F2-79C5-4A6A-876F-AB93936464D5}"}}, {"type": "Feature", "geometry": {"type": "Point", "coordinates": [-121.85525542458343, 47.302752848773906]}, "properties": {"OBJECTID": 2, "NAME": "New Massey Gate", "CATEGORY": "Closed", "DATE": 1314082800000, "COMMENTS": " ", "GlobalID": "{26E957F4-F830-4476-8938-73CFD7B45A3A}"}}, {"type": "Feature", "geometry": {"type": "Point", "coordinates": [-121.79467969979977, 47.281295635503874]}, "properties": {"OBJECTID": 3, "NAME": " ", "CATEGORY": "Closed", "DATE": 1314082800000, "COMMENTS": " ", "GlobalID": "{D73932DA-4A92-478A-B2C1-DD3B33A3623F}"}}, {"type": "Feature", "geometry": {"type": "Point", "coordinates": [-121.54441263794415, 47.199267788628504]}, "properties": {"OBJECTID": 4, "NAME": "Hot Springs", "CATEGORY": "Closed", "DATE": 1314082800000, "COMMENTS": " ", "GlobalID": "{D5B55A35-574B-45A7-B2C6-5F24409F0AB9}"}}, {"type": "Feature", "geometry": {"type": "Point", "coordinates": [-121.85135972531747, 47.30575187182799]}, "properties": {"OBJECTID": 5, "NAME": "Old Headworks", "CATEGORY": "Open", "DATE": 1314082800000, "COMMENTS": " ", "GlobalID": "{0A8B6016-5983-4DAE-9BD8-D5308DD6BF29}"}}, {"type": "Feature", "geometry": {"type": "Point", "coordinates": [-121.85110330769827, 47.30493160834362]}, "properties": {"OBJECTID": 6, "NAME": " ", "CATEGORY": "Open", "DATE": 1314082800000, "COMMENTS": " ", "GlobalID": "{AFFD732D-38AF-4B39-8BDF-E1B049EC1869}"}}, {"type": "Feature", "geometry": {"type": "Point", "coordinates": [-121.83960441555796, 47.300214026474166]}, "properties": {"OBJECTID": 7, "NAME": "Intake", "CATEGORY": "Open", "DATE": 1314082800000, "COMMENTS": " ", "GlobalID": "{45FC9C89-1164-4B60-BEC7-355B98B376C0}"}}, {"type": "Feature", "geometry": {"type": "Point", "coordinates": [-121.84100516523827, 47.301688718376944]}, "properties": {"OBJECTID": 8, "NAME": " ", "CATEGORY": "Open", "DATE": 1314082800000, "COMMENTS": " ", "GlobalID": "{3C531A70-805B-4587-94D8-108FE9AADC75}"}}, {"type": "Feature", "geometry": {"type": "Point", "coordinates": [-121.81906439428667, 47.343404537568354]}, "properties": {"OBJECTID": 9, "NAME": " ", "CATEGORY": "SW Gate", "DATE": 1314082800000, "COMMENTS": " ", "GlobalID": "{34799F42-FC9F-4475-9F99-26A05040C945}"}}, {"type": "Feature", "geometry": {"type": "Point", "coordinates": [-121.77152334879207, 47.30130887012886]}, "properties": {"OBJECTID": 10, "NAME": " ", "CATEGORY": "Closed", "DATE": 1314082800000, "COMMENTS": " ", "GlobalID": "{F9E7719F-7496-4E10-97AC-C4B74B222DDD}"}}, {"type": "Feature", "geometry": {"type": "Point", "coordinates": [-121.7621216393249, 47.29202703369097]}, "properties": {"OBJECTID": 11, "NAME": " ", "CATEGORY": "Closed", "DATE": 1314082800000, "COMMENTS": " ", "GlobalID": "{55B1A927-1A7E-4483-9837-8611FBE44733}"}}, {"type": "Feature", "geometry": {"type": "Point", "coordinates": [-121.75299626137513, 47.27102509940396]}, "properties": {"OBJECTID": 12, "NAME": " ", "CATEGORY": "Closed", "DATE": 1314082800000, "COMMENTS": " ", "GlobalID": "{0C4FD6F6-BCDB-43CA-9378-F03992EFCB4D}"}}, {"type": "Feature", "geometry": {"type": "Point", "coordinates": [-121.74087989568771, 47.267521287245465]}, "properties": {"OBJECTID": 13, "NAME": " ", "CATEGORY": "Closed", "DATE": 1314082800000, "COMMENTS": " ", "GlobalID": "{024C4C79-8D38-433E-B7C0-917A68F7BE49}"}}, {"type": "Feature", "geometry": {"type": "Point", "coordinates": [-121.73657414355881, 47.264430170019374]}, "properties": {"OBJECTID": 14, "NAME": " ", "CATEGORY": "Closed", "DATE": 1314082800000, "COMMENTS": " ", "GlobalID": "{A414453D-3AFA-44FE-A77A-220668736D35}"}}, {"type": "Feature", "geometry": {"type": "Point", "coordinates": [-121.61204814809604, 47.228770739458454]}, "properties": {"OBJECTID": 15, "NAME": "Maywood", "CATEGORY": "Closed", "DATE": 1314082800000, "COMMENTS": " ", "GlobalID": "{86A83510-0FBC-4023-934A-0BF239D0CE2E}"}}, {"type": "Feature", "geometry": {"type": "Point", "coordinates": [-121.75562669878248, 47.274162472617554]}, "properties": {"OBJECTID": 16, "NAME": "gun range", "CATEGORY": "Closed", "DATE": 1314082800000, "COMMENTS": " ", "GlobalID": "{1E5FCE8B-261B-4F76-8C4A-45D5EDAED94E}"}}, {"type": "Feature", "geometry": {"type": "Point", "coordinates": [-121.47264303593153, 47.21330304180774]}, "properties": {"OBJECTID": 17, "NAME": "Sort Yard", "CATEGORY": "Open", "DATE": 1314169200000, "COMMENTS": " ", "GlobalID": "{67D26F8F-0DFF-4B30-B064-1E1520401202}"}}, {"type": "Feature", "geometry": {"type": "Point", "coordinates": [-121.46765674153893, 47.214371884400684]}, "properties": {"OBJECTID": 18, "NAME": "Air Field", "CATEGORY": "Open", "DATE": 1314169200000, "COMMENTS": " ", "GlobalID": "{D721EC21-D186-4C8D-927A-875378E48EA6}"}}, {"type": "Feature", "geometry": {"type": "Point", "coordinates": [-121.45510002594914, 47.21797971972581]}, "properties": {"OBJECTID": 19, "NAME": "Friday Creek Gate", "CATEGORY": "Closed", "DATE": 1314169200000, "COMMENTS": " ", "GlobalID": "{F862AAE5-48BA-41D3-AE6F-B3733B3B9787}"}}, {"type": "Feature", "geometry": {"type": "Point", "coordinates": [-121.8585211421411, 47.31042382612378]}, "properties": {"OBJECTID": 20, "NAME": "Main Gate", "CATEGORY": "Closed", "DATE": null, "COMMENTS": null, "GlobalID": "{F12A0B4A-6F40-4B24-A5B9-4353E89B534C}"}}, {"type": "Feature", "geometry": {"type": "Point", "coordinates": [-121.78639443225389, 47.278271632904875]}, "properties": {"OBJECTID": 21, "NAME": "HHD North", "CATEGORY": "Open", "DATE": null, "COMMENTS": null, "GlobalID": "{57B5333C-C4E9-4ED0-8F22-E2FB42D247F2}"}}, {"type": "Feature", "geometry": {"type": "Point", "coordinates": [-121.78823405274596, 47.277278310707764]}, "properties": {"OBJECTID": 22, "NAME": "HHD South", "CATEGORY": "Closed", "DATE": null, "COMMENTS": null, "GlobalID": "{5A12BB2F-8AF4-4946-BCB7-A25B6C148C17}"}}, {"type": "Feature", "geometry": {"type": "Point", "coordinates": [-121.73449707276211, 47.2433285867982]}, "properties": {"OBJECTID": 23, "NAME": "Bridge 71 South", "CATEGORY": "Open", "DATE": null, "COMMENTS": null, "GlobalID": "{3AF6D145-EFE4-40D9-A633-1B8A4EFF9353}"}}, {"type": "Feature", "geometry": {"type": "Point", "coordinates": [-121.72027138674284, 47.24067484572253]}, "properties": {"OBJECTID": 24, "NAME": "Bridge 71 North", "CATEGORY": "Open", "DATE": null, "COMMENTS": null, "GlobalID": "{A5FE25BF-ADA7-4DAC-8CEB-3719C89D033A}"}}, {"type": "Feature", "geometry": {"type": "Point", "coordinates": [-121.53110148509766, 47.20724814723403]}, "properties": {"OBJECTID": 25, "NAME": null, "CATEGORY": "Open", "DATE": null, "COMMENTS": null, "GlobalID": "{1C5C3E5C-2CD5-471E-9AA5-40A907BF9BB4}"}}, {"type": "Feature", "geometry": {"type": "Point", "coordinates": [-121.8897404152887, 47.28722351497045]}, "properties": {"OBJECTID": 26, "NAME": null, "CATEGORY": null, "DATE": null, "COMMENTS": null, "GlobalID": "{40E32DE4-9FD4-428E-B8D3-2B18D5EDF25A}"}}, {"type": "Feature", "geometry": {"type": "Point", "coordinates": [-121.89428322115108, 47.27675947036173]}, "properties": {"OBJECTID": 27, "NAME": null, "CATEGORY": null, "DATE": null, "COMMENTS": null, "GlobalID": "{8B6E1A0C-CFA6-48E0-876E-CF6F40EBF7E7}"}}, {"type": "Feature", "geometry": {"type": "Point", "coordinates": [-121.86263115151229, 47.319304695616175]}, "properties": {"OBJECTID": 28, "NAME": null, "CATEGORY": null, "DATE": null, "COMMENTS": null, "GlobalID": "{0F36B35E-E600-4063-BD2B-12CADD928F4A}"}}, {"type": "Feature", "geometry": {"type": "Point", "coordinates": [-121.805641347862, 47.19961038486598]}, "properties": {"OBJECTID": 29, "NAME": null, "CATEGORY": null, "DATE": null, "COMMENTS": null, "GlobalID": "{8E5EA408-503E-40F0-8C6B-9DB2727FD11D}"}}, {"type": "Feature", "geometry": {"type": "Point", "coordinates": [-121.80817156853969, 47.19186280430366]}, "properties": {"OBJECTID": 30, "NAME": null, "CATEGORY": null, "DATE": null, "COMMENTS": null, "GlobalID": "{FA7FA592-A007-446C-85AE-6AB98D2BD988}"}}, {"type": "Feature", "geometry": {"type": "Point", "coordinates": [-121.75547552094967, 47.19960915525178]}, "properties": {"OBJECTID": 31, "NAME": null, "CATEGORY": null, "DATE": null, "COMMENTS": null, "GlobalID": "{070F8546-9CD4-4413-9EC5-70D39B3E47F5}"}}, {"type": "Feature", "geometry": {"type": "Point", "coordinates": [-121.7348738544059, 47.20281882449274]}, "properties": {"OBJECTID": 32, "NAME": null, "CATEGORY": null, "DATE": null, "COMMENTS": null, "GlobalID": "{718C95C3-DDCF-4F28-BC81-2898025D3E83}"}}, {"type": "Feature", "geometry": {"type": "Point", "coordinates": [-121.72665760511406, 47.198530094041566]}, "properties": {"OBJECTID": 33, "NAME": null, "CATEGORY": null, "DATE": null, "COMMENTS": null, "GlobalID": "{4122FDCD-061E-4121-A932-E2FF5F701747}"}}, {"type": "Feature", "geometry": {"type": "Point", "coordinates": [-121.65287270053459, 47.2137677152669]}, "properties": {"OBJECTID": 34, "NAME": null, "CATEGORY": null, "DATE": null, "COMMENTS": null, "GlobalID": "{2CFDA252-4720-4092-9783-00CD8819FD3F}"}}, {"type": "Feature", "geometry": {"type": "Point", "coordinates": [-121.46101698682538, 47.27791354252072]}, "properties": {"OBJECTID": 35, "NAME": null, "CATEGORY": "SW Gate", "DATE": null, "COMMENTS": null, "GlobalID": "{31D799C3-E8E9-4651-876E-F82202CFE7E4}"}}, {"type": "Feature", "geometry": {"type": "Point", "coordinates": [-121.87502945844544, 47.32162963412453]}, "properties": {"OBJECTID": 36, "NAME": null, "CATEGORY": null, "DATE": null, "COMMENTS": null, "GlobalID": "{FEEAE678-DA3F-4D78-839C-F7336A32E000}"}}, {"type": "Feature", "geometry": {"type": "Point", "coordinates": [-121.89001597116953, 47.30727477439086]}, "properties": {"OBJECTID": 37, "NAME": null, "CATEGORY": null, "DATE": null, "COMMENTS": null, "GlobalID": "{FBAC3B8D-F8F0-4692-A1AC-540593CC5222}"}}, {"type": "Feature", "geometry": {"type": "Point", "coordinates": [-121.90670541739897, 47.308852640811764]}, "properties": {"OBJECTID": 38, "NAME": null, "CATEGORY": null, "DATE": null, "COMMENTS": null, "GlobalID": "{C226C78D-D1D0-40BD-B848-974038DAE2F6}"}}, {"type": "Feature", "geometry": {"type": "Point", "coordinates": [-121.89267917255611, 47.276779944720204]}, "properties": {"OBJECTID": 39, "NAME": null, "CATEGORY": null, "DATE": null, "COMMENTS": null, "GlobalID": "{9CBCB2B3-44F7-4F6B-97DF-C73ED1BDA887}"}}, {"type": "Feature", "geometry": {"type": "Point", "coordinates": [-121.90338574675917, 47.28369709121342]}, "properties": {"OBJECTID": 40, "NAME": null, "CATEGORY": null, "DATE": null, "COMMENTS": null, "GlobalID": "{CA40803A-7EB4-4E13-90D1-D7586108D3B1}"}}, {"type": "Feature", "geometry": {"type": "Point", "coordinates": [-121.87215616233088, 47.25640961862859]}, "properties": {"OBJECTID": 41, "NAME": null, "CATEGORY": null, "DATE": null, "COMMENTS": null, "GlobalID": "{20C32525-E921-43E1-87C2-E2E135514307}"}}, {"type": "Feature", "geometry": {"type": "Point", "coordinates": [-121.42266359860703, 47.339525820050326]}, "properties": {"OBJECTID": 42, "NAME": null, "CATEGORY": null, "DATE": null, "COMMENTS": null, "GlobalID": "{67BC250E-B6F5-4193-84E1-35B1DDC5E417}"}}, {"type": "Feature", "geometry": {"type": "Point", "coordinates": [-121.42945484902162, 47.32862725167848]}, "properties": {"OBJECTID": 43, "NAME": null, "CATEGORY": null, "DATE": null, "COMMENTS": null, "GlobalID": "{B777F365-447B-46B9-B87E-BFB5F0D47CC1}"}}, {"type": "Feature", "geometry": {"type": "Point", "coordinates": [-121.4114429057796, 47.325926669710405]}, "properties": {"OBJECTID": 44, "NAME": null, "CATEGORY": null, "DATE": null, "COMMENTS": null, "GlobalID": "{D73D4E26-0895-4F2C-BDD5-C66C12EC50B8}"}}, {"type": "Feature", "geometry": {"type": "Point", "coordinates": [-121.39092632099059, 47.33169640007964]}, "properties": {"OBJECTID": 45, "NAME": null, "CATEGORY": null, "DATE": null, "COMMENTS": null, "GlobalID": "{422B71B6-7762-4FF1-B30F-D65D8A016BFB}"}}, {"type": "Feature", "geometry": {"type": "Point", "coordinates": [-121.39046845955623, 47.33358652659556]}, "properties": {"OBJECTID": 46, "NAME": null, "CATEGORY": null, "DATE": null, "COMMENTS": null, "GlobalID": "{46DCFC26-F047-46B2-B755-522382DDB85E}"}}, {"type": "Feature", "geometry": {"type": "Point", "coordinates": [-121.37068145801031, 47.31517817894116]}, "properties": {"OBJECTID": 47, "NAME": null, "CATEGORY": null, "DATE": null, "COMMENTS": null, "GlobalID": "{F5473427-7460-437B-9E2E-3FB3A46177F5}"}}, {"type": "Feature", "geometry": {"type": "Point", "coordinates": [-121.40108492371047, 47.30400340143701]}, "properties": {"OBJECTID": 48, "NAME": null, "CATEGORY": null, "DATE": null, "COMMENTS": null, "GlobalID": "{E56CA438-69E8-4E88-A1C2-864CD055ADBA}"}}, {"type": "Feature", "geometry": {"type": "Point", "coordinates": [-121.40948866863329, 47.29214762296007]}, "properties": {"OBJECTID": 49, "NAME": null, "CATEGORY": null, "DATE": null, "COMMENTS": null, "GlobalID": "{8EBC09D2-24B3-472E-B449-5C04DD2A2788}"}}, {"type": "Feature", "geometry": {"type": "Point", "coordinates": [-121.92451217263879, 47.18423600699379]}, "properties": {"OBJECTID": 50, "NAME": null, "CATEGORY": null, "DATE": null, "COMMENTS": null, "GlobalID": "{240ABF34-4D34-4AEE-8F31-24A6BFB6A3D4}"}}, {"type": "Feature", "geometry": {"type": "Point", "coordinates": [-121.80096517165398, 47.20284598526231]}, "properties": {"OBJECTID": 51, "NAME": null, "CATEGORY": null, "DATE": null, "COMMENTS": null, "GlobalID": "{B4C35D20-3CEA-412F-A071-0A9A08D73C2F}"}}, {"type": "Feature", "geometry": {"type": "Point", "coordinates": [-121.78632100344302, 47.20104940070108]}, "properties": {"OBJECTID": 52, "NAME": null, "CATEGORY": null, "DATE": null, "COMMENTS": null, "GlobalID": "{9DCE041E-25AF-4BB5-A8F1-43BB526BE414}"}}, {"type": "Feature", "geometry": {"type": "Point", "coordinates": [-121.66782246617265, 47.18299162237411]}, "properties": {"OBJECTID": 53, "NAME": null, "CATEGORY": null, "DATE": null, "COMMENTS": null, "GlobalID": "{2D4CFD87-1E5E-44A2-8C39-60548E7C771D}"}}, {"type": "Feature", "geometry": {"type": "Point", "coordinates": [-121.49313928308335, 47.14680986496429]}, "properties": {"OBJECTID": 54, "NAME": null, "CATEGORY": null, "DATE": null, "COMMENTS": null, "GlobalID": "{04D33F94-B560-49A6-892F-C3AC39EC5C10}"}}, {"type": "Feature", "geometry": {"type": "Point", "coordinates": [-121.39768340751986, 47.10182013711452]}, "properties": {"OBJECTID": 55, "NAME": null, "CATEGORY": null, "DATE": null, "COMMENTS": null, "GlobalID": "{3F14D005-59EB-4EC8-A7DC-CB7C860E5791}"}}, {"type": "Feature", "geometry": {"type": "Point", "coordinates": [-121.36458317736589, 47.14079584955984]}, "properties": {"OBJECTID": 59, "NAME": null, "CATEGORY": null, "DATE": null, "COMMENTS": null, "GlobalID": "{574936B3-3462-410E-BA75-6AF7468BDDBE}"}}, {"type": "Feature", "geometry": {"type": "Point", "coordinates": [-121.36306282796457, 47.14188546157922]}, "properties": {"OBJECTID": 60, "NAME": null, "CATEGORY": null, "DATE": null, "COMMENTS": null, "GlobalID": "{E2727D41-469B-422F-9CB3-883C80BB14C8}"}}, {"type": "Feature", "geometry": {"type": "Point", "coordinates": [-121.42751773804673, 47.16790437977438]}, "properties": {"OBJECTID": 61, "NAME": null, "CATEGORY": null, "DATE": null, "COMMENTS": null, "GlobalID": "{37A552B6-C8FE-40E5-AB3B-140F25C4DE84}"}}, {"type": "Feature", "geometry": {"type": "Point", "coordinates": [-121.42332969930773, 47.17744166158079]}, "properties": {"OBJECTID": 62, "NAME": null, "CATEGORY": null, "DATE": null, "COMMENTS": null, "GlobalID": "{4E9A5534-16CD-48F6-8ECF-62CB41A87701}"}}, {"type": "Feature", "geometry": {"type": "Point", "coordinates": [-121.4463649953797, 47.217154024611396]}, "properties": {"OBJECTID": 64, "NAME": null, "CATEGORY": null, "DATE": null, "COMMENTS": null, "GlobalID": "{4240C30A-0160-4858-840A-112773F190E4}"}}, {"type": "Feature", "geometry": {"type": "Point", "coordinates": [-121.50999121821522, 47.20999191145638]}, "properties": {"OBJECTID": 65, "NAME": null, "CATEGORY": null, "DATE": null, "COMMENTS": null, "GlobalID": "{A157CD78-AD41-443F-9F5A-66DDC6C39402}"}}, {"type": "Feature", "geometry": {"type": "Point", "coordinates": [-121.3580786761164, 47.13885124710572]}, "properties": {"OBJECTID": 66, "NAME": null, "CATEGORY": null, "DATE": null, "COMMENTS": null, "GlobalID": "{36AEB981-554C-4358-9C59-CBA36A6737D2}"}}, {"type": "Feature", "geometry": {"type": "Point", "coordinates": [-121.46118946687217, 47.14088027760245]}, "properties": {"OBJECTID": 67, "NAME": null, "CATEGORY": null, "DATE": null, "COMMENTS": null, "GlobalID": "{2966A87B-0142-487F-8660-5712FDFBA34B}"}}, {"type": "Feature", "geometry": {"type": "Point", "coordinates": [-121.76791960961536, 47.17063535154715]}, "properties": {"OBJECTID": 68, "NAME": null, "CATEGORY": null, "DATE": null, "COMMENTS": null, "GlobalID": "{DB695160-71F9-4516-8856-34A3767084CD}"}}, {"type": "Feature", "geometry": {"type": "Point", "coordinates": [-121.51989532188492, 47.2495657161894]}, "properties": {"OBJECTID": 69, "NAME": null, "CATEGORY": null, "DATE": null, "COMMENTS": null, "GlobalID": "{2D3A3204-32B0-45B0-8AB0-D71424AFC43F}"}}, {"type": "Feature", "geometry": {"type": "Point", "coordinates": [-121.52436169975569, 47.258798722630644]}, "properties": {"OBJECTID": 70, "NAME": null, "CATEGORY": null, "DATE": null, "COMMENTS": null, "GlobalID": "{052912C6-0FA3-44DA-B90D-E28D092E3E7F}"}}, {"type": "Feature", "geometry": {"type": "Point", "coordinates": [-121.55421008914547, 47.24342234029841]}, "properties": {"OBJECTID": 71, "NAME": null, "CATEGORY": null, "DATE": null, "COMMENTS": null, "GlobalID": "{368F92A2-9D2A-4634-927C-DF8C06B518AF}"}}, {"type": "Feature", "geometry": {"type": "Point", "coordinates": [-121.80854688505957, 47.34314816084463]}, "properties": {"OBJECTID": 72, "NAME": null, "CATEGORY": "SW Removed", "DATE": null, "COMMENTS": null, "GlobalID": "{D3D5EBF7-F48D-47E5-B183-22C8AE59E8A2}"}}, {"type": "Feature", "geometry": {"type": "Point", "coordinates": [-121.84107604875152, 47.343485649525256]}, "properties": {"OBJECTID": 73, "NAME": null, "CATEGORY": null, "DATE": null, "COMMENTS": null, "GlobalID": "{121DB5A1-741C-4B2A-A66A-0C27C5BC5A30}"}}, {"type": "Feature", "geometry": {"type": "Point", "coordinates": [-121.84904420475138, 47.3322786876797]}, "properties": {"OBJECTID": 74, "NAME": null, "CATEGORY": null, "DATE": null, "COMMENTS": null, "GlobalID": "{BCDAA0F7-ACFA-4DD2-9B50-684453687ECB}"}}, {"type": "Feature", "geometry": {"type": "Point", "coordinates": [-121.89117015755292, 47.329784457072755]}, "properties": {"OBJECTID": 75, "NAME": null, "CATEGORY": null, "DATE": null, "COMMENTS": null, "GlobalID": "{2EAD94B3-45F8-4A61-A523-DD06F1602885}"}}, {"type": "Feature", "geometry": {"type": "Point", "coordinates": [-121.77644616303806, 47.30884173123707]}, "properties": {"OBJECTID": 76, "NAME": null, "CATEGORY": null, "DATE": null, "COMMENTS": null, "GlobalID": "{F615B69C-D08F-4F4B-9984-895EA6840D3C}"}}, {"type": "Feature", "geometry": {"type": "Point", "coordinates": [-121.43456533332163, 47.218374166077425]}, "properties": {"OBJECTID": 77, "NAME": "RR", "CATEGORY": "Closed", "DATE": null, "COMMENTS": "", "GlobalID": "{7D616187-E3F0-439F-B927-757614132FFC}"}}, {"type": "Feature", "geometry": {"type": "Point", "coordinates": [-121.43665254339807, 47.22121383294561]}, "properties": {"OBJECTID": 78, "NAME": "Sunday Creek ", "CATEGORY": "Closed", "DATE": null, "COMMENTS": "Only has a PSE lock.", "GlobalID": "{0340610E-3C59-4099-A5DB-82E8642924EA}"}}, {"type": "Feature", "geometry": {"type": "Point", "coordinates": [-121.37988188978579, 47.25440552155363]}, "properties": {"OBJECTID": 79, "NAME": "5400-03A", "CATEGORY": "Closed", "DATE": null, "COMMENTS": "", "GlobalID": "{A7CA421A-9CBC-4A03-A67A-0895FC6B344F}"}}, {"type": "Feature", "geometry": {"type": "Point", "coordinates": [-121.48495780522042, 47.269449415361755]}, "properties": {"OBJECTID": 80, "NAME": null, "CATEGORY": "SW Gate", "DATE": null, "COMMENTS": null, "GlobalID": "{1F9A72DD-FEAA-4F0B-83EE-DEBDC7CC9B5F}"}}, {"type": "Feature", "geometry": {"type": "Point", "coordinates": [-121.57453474861148, 47.29512530375134]}, "properties": {"OBJECTID": 81, "NAME": null, "CATEGORY": "SW Gate", "DATE": null, "COMMENTS": null, "GlobalID": "{85D6552D-6E1D-4FAF-A033-5B67CAE5F4A1}"}}, {"type": "Feature", "geometry": {"type": "Point", "coordinates": [-121.57899200022933, 47.294768188227884]}, "properties": {"OBJECTID": 82, "NAME": null, "CATEGORY": "SW Gate", "DATE": null, "COMMENTS": null, "GlobalID": "{6483F27F-81B8-4F0B-AFCC-2EDA002523DB}"}}, {"type": "Feature", "geometry": {"type": "Point", "coordinates": [-121.60377166000845, 47.297039740973084]}, "properties": {"OBJECTID": 83, "NAME": null, "CATEGORY": "SW Gate", "DATE": null, "COMMENTS": null, "GlobalID": "{B9491094-8E37-4BC8-820F-E85F22888BBC}"}}, {"type": "Feature", "geometry": {"type": "Point", "coordinates": [-121.67342012424669, 47.31089377805936]}, "properties": {"OBJECTID": 84, "NAME": null, "CATEGORY": "SW Blocked", "DATE": null, "COMMENTS": null, "GlobalID": "{0F4CEA1F-E455-43A4-8B32-943F390258B9}"}}, {"type": "Feature", "geometry": {"type": "Point", "coordinates": [-121.68155244280416, 47.32942536921835]}, "properties": {"OBJECTID": 85, "NAME": null, "CATEGORY": "SW Removed", "DATE": null, "COMMENTS": null, "GlobalID": "{C3733A23-D31A-4BA5-93C1-534D01C44791}"}}, {"type": "Feature", "geometry": {"type": "Point", "coordinates": [-121.71916543893433, 47.33669699322555]}, "properties": {"OBJECTID": 86, "NAME": null, "CATEGORY": "SW Gate", "DATE": null, "COMMENTS": null, "GlobalID": "{5633E4A1-2E0E-4E2B-AD82-3F8A7BEDF500}"}}, {"type": "Feature", "geometry": {"type": "Point", "coordinates": [-121.76267423010619, 47.32761365929223]}, "properties": {"OBJECTID": 87, "NAME": null, "CATEGORY": "SW Gate", "DATE": null, "COMMENTS": null, "GlobalID": "{7FA3BCC3-7DD7-487C-B4DF-E5D4C1B30388}"}}, {"type": "Feature", "geometry": {"type": "Point", "coordinates": [-121.84820015814792, 47.36085634709573]}, "properties": {"OBJECTID": 88, "NAME": null, "CATEGORY": "SW Gate", "DATE": null, "COMMENTS": null, "GlobalID": "{413ACA92-26AE-4742-A655-E09326F7EF27}"}}, {"type": "Feature", "geometry": {"type": "Point", "coordinates": [-121.84830978728894, 47.36222601468106]}, "properties": {"OBJECTID": 89, "NAME": null, "CATEGORY": "SW Gate", "DATE": null, "COMMENTS": null, "GlobalID": "{EFBE8651-CF16-47BB-BFB1-122ADEA864DD}"}}, {"type": "Feature", "geometry": {"type": "Point", "coordinates": [-121.87498791760723, 47.363729495849256]}, "properties": {"OBJECTID": 90, "NAME": "BPA-Kangley", "CATEGORY": "SW BPA", "DATE": null, "COMMENTS": null, "GlobalID": "{50078654-A5E0-4966-9FC0-12DA4579B1BB}"}}, {"type": "Feature", "geometry": {"type": "Point", "coordinates": [-121.87252626144125, 47.376467388597064]}, "properties": {"OBJECTID": 91, "NAME": "Selleck", "CATEGORY": "SW Gate", "DATE": null, "COMMENTS": null, "GlobalID": "{14DDA274-7EDE-4B08-988C-F4E7D428120C}"}}, {"type": "Feature", "geometry": {"type": "Point", "coordinates": [-121.88769606594539, 47.37277726895786]}, "properties": {"OBJECTID": 92, "NAME": "Foothills", "CATEGORY": "SW Gate", "DATE": null, "COMMENTS": null, "GlobalID": "{1FDED9E3-3AFD-4466-86DD-CD3A38EA0603}"}}, {"type": "Feature", "geometry": {"type": "Point", "coordinates": [-121.9019164254041, 47.37271764947797]}, "properties": {"OBJECTID": 93, "NAME": null, "CATEGORY": "SW Gate", "DATE": null, "COMMENTS": null, "GlobalID": "{98E0B52A-00B8-43B8-A97C-C763579AF336}"}}, {"type": "Feature", "geometry": {"type": "Point", "coordinates": [-121.96142473130647, 47.37439138132632]}, "properties": {"OBJECTID": 94, "NAME": "50 Road Inner", "CATEGORY": "SW Gate", "DATE": null, "COMMENTS": null, "GlobalID": "{D6AD5EC9-B084-427C-8EF9-567931D9E6A8}"}}, {"type": "Feature", "geometry": {"type": "Point", "coordinates": [-121.9633714941645, 47.37531902685781]}, "properties": {"OBJECTID": 95, "NAME": "Landsburg Compound", "CATEGORY": "SW Gate", "DATE": null, "COMMENTS": null, "GlobalID": "{6B4E65D2-93DB-4E8A-B156-3F03C8AAF72B}"}}, {"type": "Feature", "geometry": {"type": "Point", "coordinates": [-121.96346970891526, 47.37616514823911]}, "properties": {"OBJECTID": 96, "NAME": "landsburg Compound", "CATEGORY": "SW Gate", "DATE": null, "COMMENTS": null, "GlobalID": "{15467D6C-B692-434C-8651-9D32B03B4296}"}}, {"type": "Feature", "geometry": {"type": "Point", "coordinates": [-121.96206841689695, 47.37704869567395]}, "properties": {"OBJECTID": 97, "NAME": "Forebay", "CATEGORY": "SW Gate", "DATE": null, "COMMENTS": null, "GlobalID": "{0A1AE614-3A9F-4C48-8E7F-A01BEB4564EE}"}}, {"type": "Feature", "geometry": {"type": "Point", "coordinates": [-121.96215903088772, 47.37751389651894]}, "properties": {"OBJECTID": 98, "NAME": "Landsburg 9 Road", "CATEGORY": "SW Gate", "DATE": null, "COMMENTS": null, "GlobalID": "{0C7A1F7A-0600-43B1-A15F-E592D3382733}"}}, {"type": "Feature", "geometry": {"type": "Point", "coordinates": [-121.96740743487736, 47.374377161430836]}, "properties": {"OBJECTID": 99, "NAME": "Landsburg Middle", "CATEGORY": "SW Gate", "DATE": null, "COMMENTS": null, "GlobalID": "{B7D24DCD-F3D1-47BE-92EF-2ABD6BA45A93}"}}, {"type": "Feature", "geometry": {"type": "Point", "coordinates": [-121.97128231268928, 47.374328670664326]}, "properties": {"OBJECTID": 100, "NAME": null, "CATEGORY": "SW Gate", "DATE": null, "COMMENTS": null, "GlobalID": "{E45C0302-AAE4-4D7C-BB07-FED74219D199}"}}, {"type": "Feature", "geometry": {"type": "Point", "coordinates": [-121.97016525019485, 47.374923689329925]}, "properties": {"OBJECTID": 101, "NAME": "Landsburg Main", "CATEGORY": "SW Gate", "DATE": null, "COMMENTS": null, "GlobalID": "{599EC78B-F87D-42CE-AC4C-E121C0C74DF0}"}}, {"type": "Feature", "geometry": {"type": "Point", "coordinates": [-121.97344519343731, 47.3920832834677]}, "properties": {"OBJECTID": 102, "NAME": null, "CATEGORY": "SW Gate", "DATE": null, "COMMENTS": null, "GlobalID": "{5010D427-3061-4AA0-B9B8-AED43C02E48A}"}}, {"type": "Feature", "geometry": {"type": "Point", "coordinates": [-121.85545995240912, 47.342902140561506]}, "properties": {"OBJECTID": 115, "NAME": null, "CATEGORY": null, "DATE": null, "COMMENTS": null, "GlobalID": "{A1196B6A-6E81-40F5-B400-86F8284B2A89}"}}, {"type": "Feature", "geometry": {"type": "Point", "coordinates": [-121.67459898609386, 47.20486259611434]}, "properties": {"OBJECTID": 116, "NAME": "5710 Gate", "CATEGORY": "Closed", "DATE": null, "COMMENTS": null, "GlobalID": "{03977956-9183-40E0-9D2D-EAB06B47655A}"}}, {"type": "Feature", "geometry": {"type": "Point", "coordinates": [-121.48784764276164, 47.25821147454582]}, "properties": {"OBJECTID": 117, "NAME": null, "CATEGORY": "Closed", "DATE": null, "COMMENTS": null, "GlobalID": "{9CF789F9-DD7C-4026-B4E5-1A0EA9E0975D}"}}]}